SL-3 R/B                
1 13403U 82079B   26044.51442573  .00006120  00000+0  24646-3 0  9997
2 13403  81.1440 221.6152 0024155 247.4970 112.3706 15.24431424374015
SL-14 R/B               
1 13553U 82092B   26044.41344090  .00000618  00000+0  66601-4 0  9996
2 13553  82.5708 164.0989 0020950  25.8546  37.4301 14.86639856325321
SL-3 R/B                
1 13819U 83010B   26044.42300456  .00014876  00000+0  30776-3 0  9995
2 13819  81.1023  31.9779 0018368 127.7360 232.5552 15.45472394354197
SL-3 R/B                
1 14208U 83075B   26044.48562375  .00012352  00000+0  33254-3 0  9996
2 14208  97.6130  48.1617 0020498 320.9138  39.0624 15.37792415326435
COSMOS 1536             
1 14699U 84013A   26044.22355461  .00005728  00000+0  23809-3 0  9995
2 14699  82.5470 132.1603 0014452  14.5406 345.6244 15.23495190268899
SL-14 R/B               
1 14820U 84027B   26044.11478104  .00000445  00000+0  48079-4 0  9992
2 14820  82.5393 268.0668 0019305  57.4651 302.8427 14.85951785243984
SL-8 R/B                
1 15483U 85006B   26044.17544787  .00000218  00000+0  81042-4 0  9998
2 15483  74.0465 306.2573 0019338 228.9805 241.8402 14.37771095150509
SL-12 R/B(2)            
1 15772U 85042D   26044.49893531  .00000069  00000+0  52552-4 0  9996
2 15772  71.1086 138.8372 0034639 167.0217 273.3078 14.21975777110954
SL-14 R/B               
1 15945U 85069B   26044.51090528  .00000592  00000+0  64239-4 0  9991
2 15945  82.5243  47.6726 0017160 273.0995  86.8258 14.86404192169240
SL-16 R/B               
1 16182U 85097B   26044.48325968 -.00000227  00000+0 -89617-4 0  9995
2 16182  71.0022 191.5108 0009706 287.9402 129.5893 14.16595240 83804
SL-14 R/B               
1 16496U 86006B   26044.15781829  .00000708  00000+0  72552-4 0  9992
2 16496  82.5259 282.8288 0076528 355.2377   4.8102 14.86782118145569
COSMOS 1743             
1 16719U 86034A   26044.16534253  .00031691  00000+0  44153-3 0  9999
2 16719  82.5327  99.5336 0004754  39.4946 320.6655 15.56757899176433
