CCSDS_OMM_VERS = 2.0
CREATION_DATE  = 
ORIGINATOR     = 

OBJECT_NAME    = SL-3 R/B
OBJECT_ID      = 1982-079B
CENTER_NAME    = EARTH
REF_FRAME      = TEME
TIME_SYSTEM    = UTC
MEAN_ELEMENT_THEORY = SGP/SGP4

EPOCH          = 2026-02-13T12:20:46.383072
MEAN_MOTION    = 15.24431424
ECCENTRICITY   = .0024155
INCLINATION    = 81.1440
RA_OF_ASC_NODE = 221.6152
ARG_OF_PERICENTER = 247.4970
MEAN_ANOMALY   = 112.3706

EPHEMERIS_TYPE = 0
CLASSIFICATION_TYPE = U
NORAD_CAT_ID   = 13403
ELEMENT_SET_NO = 999
REV_AT_EPOCH   = 37401
BSTAR          = .24646E-3
MEAN_MOTION_DOT = .612E-4
MEAN_MOTION_DDOT = 0

CCSDS_OMM_VERS = 2.0
CREATION_DATE  = 
ORIGINATOR     = 

OBJECT_NAME    = SL-14 R/B
OBJECT_ID      = 1982-092B
CENTER_NAME    = EARTH
REF_FRAME      = TEME
TIME_SYSTEM    = UTC
MEAN_ELEMENT_THEORY = SGP/SGP4

EPOCH          = 2026-02-13T09:55:21.293760
MEAN_MOTION    = 14.86639856
ECCENTRICITY   = .002095
INCLINATION    = 82.5708
RA_OF_ASC_NODE = 164.0989
ARG_OF_PERICENTER = 25.8546
MEAN_ANOMALY   = 37.4301

EPHEMERIS_TYPE = 0
CLASSIFICATION_TYPE = U
NORAD_CAT_ID   = 13553
ELEMENT_SET_NO = 999
REV_AT_EPOCH   = 32532
BSTAR          = .66601E-4
MEAN_MOTION_DOT = .618E-5
MEAN_MOTION_DDOT = 0

CCSDS_OMM_VERS = 2.0
CREATION_DATE  = 
ORIGINATOR     = 

OBJECT_NAME    = SL-3 R/B
OBJECT_ID      = 1983-010B
CENTER_NAME    = EARTH
REF_FRAME      = TEME
TIME_SYSTEM    = UTC
MEAN_ELEMENT_THEORY = SGP/SGP4

EPOCH          = 2026-02-13T10:09:07.593984
MEAN_MOTION    = 15.45472394
ECCENTRICITY   = .0018368
INCLINATION    = 81.1023
RA_OF_ASC_NODE = 31.9779
ARG_OF_PERICENTER = 127.7360
MEAN_ANOMALY   = 232.5552

EPHEMERIS_TYPE = 0
CLASSIFICATION_TYPE = U
NORAD_CAT_ID   = 13819
ELEMENT_SET_NO = 999
REV_AT_EPOCH   = 35419
BSTAR          = .30776E-3
MEAN_MOTION_DOT = .14876E-3
MEAN_MOTION_DDOT = 0

CCSDS_OMM_VERS = 2.0
CREATION_DATE  = 
ORIGINATOR     = 

OBJECT_NAME    = SL-3 R/B
OBJECT_ID      = 1983-075B
CENTER_NAME    = EARTH
REF_FRAME      = TEME
TIME_SYSTEM    = UTC
MEAN_ELEMENT_THEORY = SGP/SGP4

EPOCH          = 2026-02-13T11:39:17.892000
MEAN_MOTION    = 15.37792415
ECCENTRICITY   = .0020498
INCLINATION    = 97.6130
RA_OF_ASC_NODE = 48.1617
ARG_OF_PERICENTER = 320.9138
MEAN_ANOMALY   = 39.0624

EPHEMERIS_TYPE = 0
CLASSIFICATION_TYPE = U
NORAD_CAT_ID   = 14208
ELEMENT_SET_NO = 999
REV_AT_EPOCH   = 32643
BSTAR          = .33254E-3
MEAN_MOTION_DOT = .12352E-3
MEAN_MOTION_DDOT = 0

CCSDS_OMM_VERS = 2.0
CREATION_DATE  = 
ORIGINATOR     = 

OBJECT_NAME    = COSMOS 1536
OBJECT_ID      = 1984-013A
CENTER_NAME    = EARTH
REF_FRAME      = TEME
TIME_SYSTEM    = UTC
MEAN_ELEMENT_THEORY = SGP/SGP4

EPOCH          = 2026-02-13T05:21:55.118304
MEAN_MOTION    = 15.23495190
ECCENTRICITY   = .0014452
INCLINATION    = 82.5470
RA_OF_ASC_NODE = 132.1603
ARG_OF_PERICENTER = 14.5406
MEAN_ANOMALY   = 345.6244

EPHEMERIS_TYPE = 0
CLASSIFICATION_TYPE = U
NORAD_CAT_ID   = 14699
ELEMENT_SET_NO = 999
REV_AT_EPOCH   = 26889
BSTAR          = .23809E-3
MEAN_MOTION_DOT = .5728E-4
MEAN_MOTION_DDOT = 0

CCSDS_OMM_VERS = 2.0
CREATION_DATE  = 
ORIGINATOR     = 

OBJECT_NAME    = SL-14 R/B
OBJECT_ID      = 1984-027B
CENTER_NAME    = EARTH
REF_FRAME      = TEME
TIME_SYSTEM    = UTC
MEAN_ELEMENT_THEORY = SGP/SGP4

EPOCH          = 2026-02-13T02:45:17.081856
MEAN_MOTION    = 14.85951785
ECCENTRICITY   = .00193055
INCLINATION    = 82.5393
RA_OF_ASC_NODE = 268.0668
ARG_OF_PERICENTER = 57.4651
MEAN_ANOMALY   = 302.8427

EPHEMERIS_TYPE = 0
CLASSIFICATION_TYPE = U
NORAD_CAT_ID   = 14820
ELEMENT_SET_NO = 999
REV_AT_EPOCH   = 24398
BSTAR          = .48078577E-4
MEAN_MOTION_DOT = .445E-5
MEAN_MOTION_DDOT = 0

CCSDS_OMM_VERS = 2.0
CREATION_DATE  = 
ORIGINATOR     = 

OBJECT_NAME    = SL-8 R/B
OBJECT_ID      = 1985-006B
CENTER_NAME    = EARTH
REF_FRAME      = TEME
TIME_SYSTEM    = UTC
MEAN_ELEMENT_THEORY = SGP/SGP4

EPOCH          = 2026-02-13T04:12:38.695968
MEAN_MOTION    = 14.37771095
ECCENTRICITY   = .00193383
INCLINATION    = 74.0465
RA_OF_ASC_NODE = 306.2573
ARG_OF_PERICENTER = 228.9805
MEAN_ANOMALY   = 241.8402

EPHEMERIS_TYPE = 0
CLASSIFICATION_TYPE = U
NORAD_CAT_ID   = 15483
ELEMENT_SET_NO = 999
REV_AT_EPOCH   = 15050
BSTAR          = .81041915E-4
MEAN_MOTION_DOT = .218E-5
MEAN_MOTION_DDOT = 0

CCSDS_OMM_VERS = 2.0
CREATION_DATE  = 
ORIGINATOR     = 

OBJECT_NAME    = SL-12 R/B(2)
OBJECT_ID      = 1985-042D
CENTER_NAME    = EARTH
REF_FRAME      = TEME
TIME_SYSTEM    = UTC
MEAN_ELEMENT_THEORY = SGP/SGP4

EPOCH          = 2026-02-13T11:58:28.010784
MEAN_MOTION    = 14.21975777
ECCENTRICITY   = .0034639
INCLINATION    = 71.1086
RA_OF_ASC_NODE = 138.8372
ARG_OF_PERICENTER = 167.0217
MEAN_ANOMALY   = 273.3078

EPHEMERIS_TYPE = 0
CLASSIFICATION_TYPE = U
NORAD_CAT_ID   = 15772
ELEMENT_SET_NO = 999
REV_AT_EPOCH   = 11095
BSTAR          = .52552E-4
MEAN_MOTION_DOT = .69E-6
MEAN_MOTION_DDOT = 0

CCSDS_OMM_VERS = 2.0
CREATION_DATE  = 
ORIGINATOR     = 

OBJECT_NAME    = SL-14 R/B
OBJECT_ID      = 1985-069B
CENTER_NAME    = EARTH
REF_FRAME      = TEME
TIME_SYSTEM    = UTC
MEAN_ELEMENT_THEORY = SGP/SGP4

EPOCH          = 2026-02-13T12:15:42.216192
MEAN_MOTION    = 14.86404192
ECCENTRICITY   = .001716
INCLINATION    = 82.5243
RA_OF_ASC_NODE = 47.6726
ARG_OF_PERICENTER = 273.0995
MEAN_ANOMALY   = 86.8258

EPHEMERIS_TYPE = 0
CLASSIFICATION_TYPE = U
NORAD_CAT_ID   = 15945
ELEMENT_SET_NO = 999
REV_AT_EPOCH   = 16924
BSTAR          = .64239E-4
MEAN_MOTION_DOT = .592E-5
MEAN_MOTION_DDOT = 0

CCSDS_OMM_VERS = 2.0
CREATION_DATE  = 
ORIGINATOR     = 

OBJECT_NAME    = SL-16 R/B
OBJECT_ID      = 1985-097B
CENTER_NAME    = EARTH
REF_FRAME      = TEME
TIME_SYSTEM    = UTC
MEAN_ELEMENT_THEORY = SGP/SGP4

EPOCH          = 2026-02-13T11:35:53.636352
MEAN_MOTION    = 14.16595240
ECCENTRICITY   = .0009706
INCLINATION    = 71.0022
RA_OF_ASC_NODE = 191.5108
ARG_OF_PERICENTER = 287.9402
MEAN_ANOMALY   = 129.5893

EPHEMERIS_TYPE = 0
CLASSIFICATION_TYPE = U
NORAD_CAT_ID   = 16182
ELEMENT_SET_NO = 999
REV_AT_EPOCH   = 8380
BSTAR          = -.89617E-4
MEAN_MOTION_DOT = -.227E-5
MEAN_MOTION_DDOT = 0

CCSDS_OMM_VERS = 2.0
CREATION_DATE  = 
ORIGINATOR     = 

OBJECT_NAME    = SL-14 R/B
OBJECT_ID      = 1986-006B
CENTER_NAME    = EARTH
REF_FRAME      = TEME
TIME_SYSTEM    = UTC
MEAN_ELEMENT_THEORY = SGP/SGP4

EPOCH          = 2026-02-13T03:47:15.500256
MEAN_MOTION    = 14.86782118
ECCENTRICITY   = .00765286
INCLINATION    = 82.5259
RA_OF_ASC_NODE = 282.8288
ARG_OF_PERICENTER = 355.2377
MEAN_ANOMALY   = 4.8102

EPHEMERIS_TYPE = 0
CLASSIFICATION_TYPE = U
NORAD_CAT_ID   = 16496
ELEMENT_SET_NO = 999
REV_AT_EPOCH   = 14556
BSTAR          = .72551722E-4
MEAN_MOTION_DOT = .708E-5
MEAN_MOTION_DDOT = 0

CCSDS_OMM_VERS = 2.0
CREATION_DATE  = 
ORIGINATOR     = 

OBJECT_NAME    = COSMOS 1743
OBJECT_ID      = 1986-034A
CENTER_NAME    = EARTH
REF_FRAME      = TEME
TIME_SYSTEM    = UTC
MEAN_ELEMENT_THEORY = SGP/SGP4

EPOCH          = 2026-02-13T03:58:05.594592
MEAN_MOTION    = 15.56757899
ECCENTRICITY   = .00047546
INCLINATION    = 82.5327
RA_OF_ASC_NODE = 99.5336
ARG_OF_PERICENTER = 39.4946
MEAN_ANOMALY   = 320.6655

EPHEMERIS_TYPE = 0
CLASSIFICATION_TYPE = U
NORAD_CAT_ID   = 16719
ELEMENT_SET_NO = 999
REV_AT_EPOCH   = 17643
BSTAR          = .44152983E-3
MEAN_MOTION_DOT = .31691E-3
MEAN_MOTION_DDOT = 0

